HAWK-9B                 
1 59450U 24066J   26068.43130858  .00002608  00000+0  23214-3 0  9995
2 59450  45.6215  73.5456 0003751 229.3903 130.6652 14.98778240104864
STARLINK-35043          
1 65436U 25194C   26068.54821914  .00003389  00000+0  26824-3 0  9998
2 65436  97.6045 285.0493 0002262  74.6485 285.4989 15.01266309 29676
